ION SCV-004             
1 50993U 22002K   26068.68892644  .00006538  00000+0  23198-3 0  9998
2 50993  97.2961 128.2294 0007216   1.6783 358.4480 15.29369331230088
STARLINK-31034          
1 58785U 24011W   26068.77356333  .00000920  00000+0  43193-4 0  9994
2 58785  53.1594 270.9177 0001206  74.4404 285.6729 15.30193618121748
